STARLINK-32644          
1 62151U 24224N   26068.27329560  .00035672  00000+0  13000-2 0  9993
2 62151  42.9931 160.6816 0000611 345.6563  14.4271 15.27569015 72417
TEVEL2-9                
1 63237U 25052AD  26068.70229538  .00018694  00000+0  67240-3 0  9992
2 63237  97.4057 324.3929 0007990 124.2475 235.9522 15.28633834 54816
